{
  "norad_id": 54781,
  "name": "STARLINK-5443",
  "history": [
    {
      "epoch": "2026-03-28T20:42:14.637888Z",
      "apogee_km": 540.7006076680282,
      "perigee_km": 538.7784065017686,
      "latitude_deg": 5.605474387220171e-05,
      "longitude_deg": 166.23072878500656,
      "height_km": 540.6576356987787,
      "semi_major_axis_km": 6917.876507084898,
      "eccentricity": 0.00013893,
      "inclination_deg": 53.218,
      "raan_deg": 303.0687,
      "arg_perigee_deg": 91.3359,
      "mean_anomaly_deg": 268.7793,
      "mean_motion_rev_day": 15.0884127
    },
    {
      "epoch": "2026-03-28T23:53:00.798432Z",
      "apogee_km": 540.7007628567462,
      "perigee_km": 538.7665262245328,
      "latitude_deg": -2.1751275900612258e-05,
      "longitude_deg": 117.81285830918095,
      "height_km": 540.6594428826805,
      "semi_major_axis_km": 6917.87064454064,
      "eccentricity": 0.0001398,
      "inclination_deg": 53.218,
      "raan_deg": 302.4738,
      "arg_perigee_deg": 91.7821,
      "mean_anomaly_deg": 268.3331,
      "mean_motion_rev_day": 15.08843188
    }
  ]
}